0 EXPLORER 22
1 00899U 64064A   13282.39207338  .00000118  00000-0  99715-4 0   746
2 00899 079.6906 150.5925 0120689 222.9369 255.9880 13.81648751465221
0 EXPLORER 22
1 00899U 64064A   13283.75292972  .00000129  00000-0  10876-3 0   758
2 00899 079.6903 149.1070 0120728 219.4310 184.8162 13.81648885465416
0 EXPLORER 22
1 00899U 64064A   13285.78218708  .00000152  00000-0  12898-3 0   772
2 00899 079.6898 146.8918 0120776 214.2031 198.2386 13.81649316465697
0 EXPLORER 22
1 00899U 64064A   13286.79579116  .00000157  00000-0  13356-3 0   783
2 00899 079.6896 145.7853 0120799 211.5948 199.8510 13.81649575465832
0 EXPLORER 22
1 00899U 64064A   13288.11996006  .00000166  00000-0  14149-3 0   794
2 00899 079.6893 144.3398 0120829 208.1909 306.1932 13.81650183466010
0 EXPLORER 22
1 00899U 64064A   13289.13285473  .00000136  00000-0  11523-3 0   808
2 00899 079.6892 143.2340 0120862 205.5860 304.2782 13.81650631466153
0 EXPLORER 22
1 00899U 64064A   13290.43217722  .00000134  00000-0  11316-3 0   814
2 00899 079.6891 141.8155 0120887 202.2484 287.0387 13.81651055466333
0 EXPLORER 22
1 00899U 64064A   13291.72394731  .00000129  00000-0  10832-3 0   820
2 00899 079.6890 140.4052 0120935 198.9227 232.2438 13.81651421466519
0 EXPLORER 22
1 00899U 64064A   13292.73865163  .00000150  00000-0  12703-3 0   838
2 00899 079.6891 139.2973 0120956 196.3156 239.3329 13.81651720466658
0 EXPLORER 22
1 00899U 64064A   13293.74717231  .00000158  00000-0  13430-3 0   849
2 00899 079.6890 138.1962 0120977 193.7249 215.6654 13.81652006466791
0 EXPLORER 22
1 00899U 64064A   13294.76175344  .00000178  00000-0  15181-3 0   853
2 00899 079.6890 137.0885 0121001 191.1197 222.1425 13.81652273466937
0 EXPLORER 22
1 00899U 64064A   13295.86187458  .00000202  00000-0  17326-3 0   866
2 00899 079.6889 135.8874 0121023 188.2976 294.0904 13.81652544467083
